NORAD_CAT_ID,OBJECT_NAME,OBJECT_TYPE,EPOCH,MEAN_MOTION,ECCENTRICITY,INCLINATION,RA_OF_ASC_NODE,ARG_OF_PERICENTER,MEAN_ANOMALY,BSTAR,MEAN_MOTION_DOT,MEAN_MOTION_DDOT,TLE_LINE0,TLE_LINE1,TLE_LINE2,SEMIMAJOR_AXIS,PERIOD,APOGEE,PERIGEE,DECAYED
52583.0,STARLINK-3895,PAYLOAD,2022-09-10 06:00:02,15.08840754,0.0001385,53.217,89.2688,63.0623,76.6509,-0.0012420999999999,-0.00020002,0.0,0 STARLINK-3895,1 52583U 22051AZ  22253.25002315 -.00020002  00000-0 -12421-2 0  9993,2 52583  53.2170  89.2688 0001385  63.0623  76.6509 15.08840754 18959,6917.878000000002,95.438,540.701,538.785,0.0
52583.0,STARLINK-3895,PAYLOAD,2022-09-10 14:00:01,15.08842757,0.0001405,53.2173,87.7717,68.6221,82.6143,0.00048294,7.407e-05,0.0,0 STARLINK-3895,1 52583U 22051AZ  22253.58334491  .00007407  00000-0  48294-3 0  9992,2 52583  53.2173  87.7717 0001405  68.6221  82.6143 15.08842757  1303,6917.871999999999,95.437,540.7090000000002,538.765,0.0
52583.0,STARLINK-3895,PAYLOAD,2022-09-10 22:00:00,15.08837878,0.0001554999999999,53.2173,86.277,59.5964,103.2436,0.0003809,5.779e-05,0.0,0 STARLINK-3895,1 52583U 22051AZ  22253.91667824  .00005779  00000-0  38090-3 0  9991,2 52583  53.2173  86.2770 0001555  59.5964 103.2436 15.08837878 19059,6917.887,95.438,540.828,538.6759999999998,0.0
52583.0,STARLINK-3895,PAYLOAD,2022-09-11 14:00:01,15.08840924,0.0001521999999999,53.2176,83.2824,70.1707,115.852,0.00012711,1.736e-05,0.0,0 STARLINK-3895,1 52583U 22051AZ  22254.58334491  .00001736  00000-0  12711-3 0  9997,2 52583  53.2176  83.2824 0001522  70.1707 115.8520 15.08840924  1305,6917.878000000002,95.437,540.795,538.69,0.0
52583.0,STARLINK-3895,PAYLOAD,2022-09-11 22:00:00,15.08823866,0.0001598,53.2175,81.7875,60.6337,136.9903,0.0020566,0.0003258,0.0,0 STARLINK-3895,1 52583U 22051AZ  22254.91667824  .00032580  00000-0  20566-2 0  9990,2 52583  53.2175  81.7875 0001598  60.6337 136.9903 15.08823866  1304,6917.93,95.439,540.9,538.689,0.0
52583.0,STARLINK-3895,PAYLOAD,2022-09-12 06:00:00,15.08847987,0.0001396999999999,53.2175,80.2896,64.8977,144.3214,-0.0024738,-0.00039451,0.0,0 STARLINK-3895,1 52583U 22051AZ  22255.25001157 -.00039451  00000-0 -24738-2 0  9990,2 52583  53.2175  80.2896 0001397  64.8977 144.3214 15.08847987 19255,6917.856,95.437,540.687,538.755,0.0
52583.0,STARLINK-3895,PAYLOAD,2022-09-12 14:00:01,15.08841812,0.0001381,53.2178,78.7933,68.7906,152.0138,-9.6578e-05,-1.825e-05,0.0,0 STARLINK-3895,1 52583U 22051AZ  22255.58334491 -.00001825  00000-0 -96578-4 0  9993,2 52583  53.2178  78.7933 0001381  68.7906 152.0138 15.08841812  1309,6917.875,95.437,540.695,538.784,0.0
52583.0,STARLINK-3895,PAYLOAD,2022-09-12 22:00:00,15.0881902,0.0001499,53.2176,77.2984,59.1127,173.2932,0.0028956999999999,0.00046072,0.0,0 STARLINK-3895,1 52583U 22051AZ  22255.91667824  .00046072  00000-0  28957-2 0  9994,2 52583  53.2176  77.2984 0001499  59.1127 173.2932 15.08819020  1309,6917.945,95.439,540.847,538.773,0.0
52583.0,STARLINK-3895,PAYLOAD,2022-09-13 14:00:01,15.0884212,0.0001479,53.2176,74.3043,70.5004,185.091,-0.00040373,-6.708e-05,0.0,0 STARLINK-3895,1 52583U 22051AZ  22256.58334491 -.00006708  00000-0 -40373-3 0  9990,2 52583  53.2176  74.3043 0001479  70.5004 185.0910 15.08842120  1306,6917.874,95.437,540.762,538.716,0.0
52583.0,STARLINK-3895,PAYLOAD,2022-09-13 16:00:00,15.08847104,0.000149,53.2178,73.9317,67.1759,281.3122,-0.001271,-0.00020463,0.0,0 STARLINK-3895,1 52583U 22051AZ  22256.66667824 -.00020463  00000-0 -12710-2 0  9995,2 52583  53.2178  73.9317 0001490  67.1759 281.3122 15.08847104 19478,6917.859,95.437,540.754,538.693,0.0
52583.0,STARLINK-3895,PAYLOAD,2022-09-13 22:00:00,15.08815305,0.0001584,53.2175,72.8099,61.3825,205.8064,0.0031471999999999,0.00050122,0.0,0 STARLINK-3895,1 52583U 22051AZ  22256.91667824  .00050122  00000-0  31472-2 0  9992,2 52583  53.2175  72.8099 0001584  61.3825 205.8064 15.08815305  1301,6917.956,95.439,540.9169999999998,538.725,0.0
52583.0,STARLINK-3895,PAYLOAD,2022-09-14 14:00:01,15.08777452,0.000148,53.2175,69.8189,63.4963,226.8884,0.0050551,0.0008095,0.0,0 STARLINK-3895,1 52583U 22051AZ  22257.58334491  .00080950  00000-0  50551-2 0  9998,2 52583  53.2175  69.8189 0001480  63.4963 226.8884 15.08777452 19614,6918.071999999999,95.442,540.96,538.913,0.0
52583.0,STARLINK-3895,PAYLOAD,2022-09-14 22:00:00,15.08834776,0.0001549,53.2174,68.32600000000001,53.0653,248.8726,0.00028368,4.229e-05,0.0,0 STARLINK-3895,1 52583U 22051AZ  22257.91667824  .00004229  00000-0  28368-3 0  9991,2 52583  53.2174  68.3260 0001549  53.0653 248.8726 15.08834776  1303,6917.896,95.438,540.8330000000002,538.69,0.0
52583.0,STARLINK-3895,PAYLOAD,2022-09-15 06:00:00,15.08829342,0.0001609,53.2176,66.8225,68.7772,244.7674,0.001325,0.00020856,0.0,0 STARLINK-3895,1 52583U 22051AZ  22258.25001157  .00020856  00000-0  13250-2 0  9997,2 52583  53.2176  66.8225 0001609  68.7772 244.7674 15.08829342 19715,6917.913000000001,95.438,540.891,538.665,0.0
52583.0,STARLINK-3895,PAYLOAD,2022-09-15 14:00:01,15.08863725,0.0001649,53.2177,65.3266,69.6746,255.4555,-0.0010644,-0.00017199,0.0,0 STARLINK-3895,1 52583U 22051AZ  22258.58334491 -.00017199  00000-0 -10644-2 0  9995,2 52583  53.2177  65.3266 0001649  69.6746 255.4555 15.08863725  1306,6917.808000000001,95.436,540.814,538.5319999999998,0.0
52583.0,STARLINK-3895,PAYLOAD,2022-09-15 17:20:02,15.08851491,0.0001539,53.2189,64.7025,63.8765,296.2385,1.5541e-06,-2.63e-06,0.0,0 STARLINK-3895,1 52583U 22051AZ  22258.72225392 -.00000263  00000-0  15541-5 0  9997,2 52583  53.2189  64.7025 0001539  63.8765 296.2385 15.08851491 19715,6917.845,95.437,540.775,538.646,0.0
52583.0,STARLINK-3895,PAYLOAD,2022-09-16 04:27:44,15.08848754,0.0001647,53.2189,62.6213,67.9412,292.1755,6.866e-05,8.05e-06,0.0,0 STARLINK-3895,1 52583U 22051AZ  22259.18593457  .00000805  00000-0  68660-4 0  9998,2 52583  53.2189  62.6213 0001647  67.9412 292.1755 15.08848754 19854,6917.854,95.437,540.8580000000002,538.5790000000002,0.0
52583.0,STARLINK-3895,PAYLOAD,2022-09-16 10:49:17,15.08845205,0.0001695,53.2187,61.4319,68.63600000000001,291.4813,3.8194e-05,3.2e-06,0.0,0 STARLINK-3895,1 52583U 22051AZ  22259.45089671  .00000320  00000-0  38194-4 0  9997,2 52583  53.2187  61.4319 0001695  68.6360 291.4813 15.08845205 19821,6917.864000000001,95.437,540.9019999999998,538.557,0.0
52583.0,STARLINK-3895,PAYLOAD,2022-09-16 20:21:36,15.08836597,0.0001676999999999,53.219,59.6477,68.8109,291.3062,5.086e-05,5.21e-06,0.0,0 STARLINK-3895,1 52583U 22051AZ  22259.84834101  .00000521  00000-0  50860-4 0  9993,2 52583  53.2190  59.6477 0001677  68.8109 291.3062 15.08836597 19955,6917.891,95.438,540.9159999999998,538.596,0.0
52583.0,STARLINK-3895,PAYLOAD,2022-09-17 04:18:33,15.08829435,0.0001628,53.2193,58.1612,68.0124,292.1041,-2.3186e-05,-6.57e-06,0.0,0 STARLINK-3895,1 52583U 22051AZ  22260.17954922 -.00000657  00000-0 -23186-4 0  9998,2 52583  53.2193  58.1612 0001628  68.0124 292.1041 15.08829435 20005,6917.913000000001,95.438,540.904,538.651,0.0
52583.0,STARLINK-3895,PAYLOAD,2022-09-17 10:40:05,15.08834803,0.0001616,53.2194,56.9716,68.2515,291.8649,-2.7098e-05,-7.19e-06,0.0,0 STARLINK-3895,1 52583U 22051AZ  22260.44450701 -.00000719  00000-0 -27098-4 0  9999,2 52583  53.2194  56.9716 0001616  68.2515 291.8649 15.08834803 19979,6917.896,95.438,540.879,538.643,0.0
52583.0,STARLINK-3895,PAYLOAD,2022-09-17 17:01:37,15.08839976,0.0001623,53.2192,55.7819,70.0712,290.0455,6.8023e-06,-1.8e-06,0.0,0 STARLINK-3895,1 52583U 22051AZ  22260.70946268 -.00000180  00000-0  68023-5 0  9991,2 52583  53.2192  55.7819 0001623  70.0712 290.0455 15.08839976 20015,6917.88,95.438,540.868,538.623,0.0
52583.0,STARLINK-3895,PAYLOAD,2022-09-18 10:30:51,15.0884453,0.0001561999999999,53.2194,52.5112,66.9845,293.1312,8.5346e-05,1.071e-05,0.0,0 STARLINK-3895,1 52583U 22051AZ  22261.43809522  .00001071  00000-0  85346-4 0  9998,2 52583  53.2194  52.5112 0001562  66.9845 293.1312 15.08844530 20198,6917.8669999999975,95.437,540.812,538.651,0.0
52583.0,STARLINK-3895,PAYLOAD,2022-09-18 20:03:10,15.08843031,0.000169,53.2193,50.729,61.8374,298.2789,0.00010945,1.454e-05,0.0,0 STARLINK-3895,1 52583U 22051AZ  22261.83553457  .00001454  00000-0  10945-3 0  9992,2 52583  53.2193  50.7290 0001690  61.8374 298.2789 15.08843031 20185,6917.871,95.437,540.905,538.567,0.0
52583.0,STARLINK-3895,PAYLOAD,2022-09-19 10:21:38,15.08838897,0.0001776999999999,53.2191,48.0498,83.134,276.9855,4.4525e-05,4.21e-06,0.0,0 STARLINK-3895,1 52583U 22051AZ  22262.43169978  .00000421  00000-0  44525-4 0  9995,2 52583  53.2191  48.0498 0001777  83.1340 276.9855 15.08838897 20270,6917.884,95.438,540.9780000000002,538.519,0.0
52583.0,STARLINK-3895,PAYLOAD,2022-09-19 16:43:11,15.0883497,0.000166,53.2193,46.8614,67.7247,292.3921,2.7236e-05,1.45e-06,0.0,0 STARLINK-3895,1 52583U 22051AZ  22262.69666374  .00000145  00000-0  27236-4 0  9998,2 52583  53.2193  46.8614 0001660  67.7247 292.3921 15.08834970 20312,6917.896,95.438,540.909,538.612,0.0
52583.0,STARLINK-3895,PAYLOAD,2022-09-20 08:37:03,15.08842938,0.0001833,53.2186,43.8881,75.0099,285.1096,-0.00012578,-2.29e-05,0.0,0 STARLINK-3895,1 52583U 22051AZ  22263.35906579 -.00002290  00000-0 -12578-3 0  9993,2 52583  53.2186  43.8881 0001833  75.0099 285.1096 15.08842938 20413,6917.871,95.437,541.004,538.4680000000002,0.0
52583.0,STARLINK-3895,PAYLOAD,2022-09-21 10:03:13,15.08831676,0.0001353,53.2213,39.1315,42.5549,317.5548,4.3621e-05,4.06e-06,0.0,0 STARLINK-3895,1 52583U 22051AZ  22264.41890974  .00000406  00000-0  43621-4 0  9991,2 52583  53.2213  39.1315 0001353  42.5549 317.5548 15.08831676 20576,6917.906,95.438,540.707,538.835,0.0
52583.0,STARLINK-3895,PAYLOAD,2022-09-22 13:04:47,15.08836723,0.0001671,53.2197,34.0756,65.3863,294.7303,2.515e-05,1.12e-06,0.0,0 STARLINK-3895,1 52583U 22051AZ  22265.54499192  .00000112  00000-0  25150-4 0  9994,2 52583  53.2197  34.0756 0001671  65.3863 294.7303 15.08836723 20747,6917.89,95.438,540.911,538.599,0.0
